{
    "satellites": [
        {
            "name": "starlink382",
            "title": "Starlink-382 (G10-38) (new)",
            "tle": [
                "1 70597C 26099P   26124.46645833 -.01290500  00000+0 -16938-2 0  1245",
                "2 70597  53.1628  14.3493 0000406 103.0276 135.2759 16.06804066    18"
            ],
            "stdMag": 5,
            "noradId": "70597",
            "intDes": null,
            "tleUrl": "http://celestrak.org/NORAD/elements/supplemental/sup-gp.php?FILE=starlink&FORMAT=tle",
            "launchDate": "2026-05-01T18:06:10.000Z",
            "active": true,
            "batch": [
                {
                    "noradId": "70597",
                    "tle": [
                        "1 70597C 26099P   26124.46645833 -.01290500  00000+0 -16938-2 0  1245",
                        "2 70597  53.1628  14.3493 0000406 103.0276 135.2759 16.06804066    18"
                    ]
                },
                {
                    "noradId": "70596",
                    "tle": [
                        "1 70596C 26099N   26124.46368056 -.01296700  00000+0 -17154-2 0  1242",
                        "2 70596  53.1628  14.3648 0000447  94.5013 127.2482 16.06681049    15"
                    ]
                },
                {
                    "noradId": "70598",
                    "tle": [
                        "1 70598C 26099Q   26124.39493056 -.01310100  00000+0 -16860-2 0  1249",
                        "2 70598  53.1627  14.7213 0000761  98.2487  86.4758 16.07129568    19"
                    ]
                },
                {
                    "noradId": "70595",
                    "tle": [
                        "1 70595C 26099M   26124.41784722 -.01319800  00000+0 -17455-2 0  1249",
                        "2 70595  53.1627  14.6043 0000285 108.2235 207.8081 16.06697009    17"
                    ]
                },
                {
                    "noradId": "70599",
                    "tle": [
                        "1 70599C 26099R   26124.39631944 -.01298000  00000+0 -16567-2 0  1248",
                        "2 70599  53.1627  14.7131 0000585  98.1265  95.0847 16.07254098    18"
                    ]
                },
                {
                    "noradId": "70600",
                    "tle": [
                        "1 70600C 26099S   26124.42895833 -.01282600  00000+0 -16326-2 0  1246",
                        "2 70600  53.1628  14.5420 0000324 117.8598 264.7717 16.07290789    18"
                    ]
                },
                {
                    "noradId": "70593",
                    "tle": [
                        "1 70593C 26099K   26124.44701389 -.01327700  00000+0 -17946-2 0  1241",
                        "2 70593  53.1628  14.4546 0000622  85.2018  38.6874 16.06349666    13"
                    ]
                },
                {
                    "noradId": "70594",
                    "tle": [
                        "1 70594C 26099L   26124.43451389 -.01315100  00000+0 -17578-2 0  1245",
                        "2 70594  53.1627  14.5185 0000329 103.0720 308.9548 16.06524328    17"
                    ]
                },
                {
                    "noradId": "70601",
                    "tle": [
                        "1 70601C 26099T   26124.39701389 -.01304500  00000+0 -16352-2 0  1248",
                        "2 70601  53.1627  14.7078 0000551 105.2905  92.8249 16.07545311    18"
                    ]
                },
                {
                    "noradId": "70592",
                    "tle": [
                        "1 70592C 26099J   26124.40048611 -.01333400  00000+0 -18028-2 0  1244",
                        "2 70592  53.1627  14.6978 0000661  81.6288 132.5841 16.06347932    16"
                    ]
                },
                {
                    "noradId": "70602",
                    "tle": [
                        "1 70602C 26099U   26124.39979167 -.01300700  00000+0 -16213-2 0  1244",
                        "2 70602  53.1628  14.6926 0000713 103.5595 111.0837 16.07632664    12"
                    ]
                },
                {
                    "noradId": "70591",
                    "tle": [
                        "1 70591C 26099H   26124.41923611 -.01339000  00000+0 -18282-2 0  1240",
                        "2 70591  53.1628  14.6007 0000266  98.0642 224.1842 16.06191671    12"
                    ]
                },
                {
                    "noradId": "70590",
                    "tle": [
                        "1 70590C 26099G   26124.41854167 -.01339000  00000+0 -18438-2 0  1241",
                        "2 70590  53.1628  14.6055 0000301  84.5203 233.2597 16.06054890    16"
                    ]
                },
                {
                    "noradId": "70603",
                    "tle": [
                        "1 70603C 26099V   26124.42270833 -.01296600  00000+0 -16092-2 0  1241",
                        "2 70603  53.1627  14.5721 0000455 118.3048 229.4972 16.07699930    17"
                    ]
                },
                {
                    "noradId": "70589",
                    "tle": [
                        "1 70589C 26099F   26124.39631944 -.01345100  00000+0 -18593-2 0  1242",
                        "2 70589  53.1627  14.7218 0000421  85.5188 103.2558 16.05995917    17"
                    ]
                },
                {
                    "noradId": "70588",
                    "tle": [
                        "1 70588C 26099E   26124.42409722 -.01352600  00000+0 -19014-2 0  1244",
                        "2 70588  53.1628  14.5790 0000220 102.5915 245.9730 16.05724942    19"
                    ]
                },
                {
                    "noradId": "70587",
                    "tle": [
                        "1 70587C 26099D   26124.39631944 -.01350200  00000+0 -18776-2 0  1240",
                        "2 70587  53.1627  14.7228 0000437  81.0071 107.3256 16.05900382    17"
                    ]
                },
                {
                    "noradId": "70604",
                    "tle": [
                        "1 70604C 26099W   26124.39562500 -.01284900  00000+0 -15805-2 0  1244",
                        "2 70604  53.1627  14.7126 0000587 105.8347  85.5543 16.07834967    14"
                    ]
                },
                {
                    "noradId": "70586",
                    "tle": [
                        "1 70586C 26099C   26124.44215278 -.01347800  00000+0 -19189-2 0  1244",
                        "2 70586  53.1629  14.4861 0000310 105.1964 347.3300 16.05514884    11"
                    ]
                },
                {
                    "noradId": "70585",
                    "tle": [
                        "1 70585C 26099B   26124.44562500 -.01355700  00000+0 -19448-2 0  1242",
                        "2 70585  53.1628  14.4690 0000503  74.6895  37.4585 16.05395384    10"
                    ]
                },
                {
                    "noradId": "70584",
                    "tle": [
                        "1 70584C 26099A   26124.39979167 -.01368900  00000+0 -19668-2 0  1246",
                        "2 70584  53.1628  14.7083 0000550  71.8793 134.7643 16.05375985    17"
                    ]
                },
                {
                    "noradId": "70605",
                    "tle": [
                        "1 70605C 26099X   26124.39631944 -.01283600  00000+0 -15736-2 0  1243",
                        "2 70605  53.1627  14.7079 0000592 109.4599  86.4365 16.07888400    10"
                    ]
                },
                {
                    "noradId": "70606",
                    "tle": [
                        "1 70606C 26099Y   26124.41576389 -.01278300  00000+0 -15583-2 0  1249",
                        "2 70606  53.1626  14.6047 0000353 114.3272 195.2428 16.07974378    11"
                    ]
                },
                {
                    "noradId": "70607",
                    "tle": [
                        "1 70607C 26099Z   26124.41923611 -.01280100  00000+0 -15540-2 0  1248",
                        "2 70607  53.1626  14.5848 0000670 113.4715 216.9243 16.08041121    12"
                    ]
                },
                {
                    "noradId": "70608",
                    "tle": [
                        "1 70608C 26099AA  26124.43104167 -.01259800  00000+0 -15249-2 0  1247",
                        "2 70608  53.1627  14.5220 0000494 114.0552 285.1707 16.08077302    11"
                    ]
                },
                {
                    "noradId": "70609",
                    "tle": [
                        "1 70609C 26099AB  26124.43034722 -.01258900  00000+0 -15108-2 0  1241",
                        "2 70609  53.1625  14.5230 0000670 114.1916 282.1715 16.08211378    11"
                    ]
                },
                {
                    "noradId": "70610",
                    "tle": [
                        "1 70610C 26099AC  26124.39284722 -.01259500  00000+0 -14916-2 0  1248",
                        "2 70610  53.1624  14.7171 0000871 105.2388  74.8577 16.08419068    13"
                    ]
                },
                {
                    "noradId": "70611",
                    "tle": [
                        "1 70611C 26099AD  26124.42548611 -.01250100  00000+0 -14770-2 0  1248",
                        "2 70611  53.1624  14.5442 0000246 119.8203 250.3947 16.08452130    15"
                    ]
                },
                {
                    "noradId": "70612",
                    "tle": [
                        "1 70612C 26099AE  26124.41576389 -.01251900  00000+0 -14656-2 0  1243",
                        "2 70612  53.1624  14.5927 0000337 120.0549 194.8858 16.08596158    14"
                    ]
                }
            ]
        }
    ],
    "config": {}
}